{"1":{"name_en":"مملكة إسبانيا - أوروبا","name_ar":"مملكة إسبانيا - أوروبا","polling_stations":[{"kalam":"1","location_id":1,"districts_ids":[0]}]},"2":{"name_en":"الاتحاد السويسري - أوروبا","name_ar":"الاتحاد السويسري - أوروبا","polling_stations":[{"kalam":"1","location_id":2,"districts_ids":[1,2,3,4,5,6,7,8]},{"kalam":"2","location_id":2,"districts_ids":[9,10,11,12,13,14,15,16,17,18,19,20,21,23,24,25,26]}]},"3":{"name_en":"مملكة هولندا - أوروبا","name_ar":"مملكة هولندا - أوروبا","polling_stations":[{"kalam":"1","location_id":3,"districts_ids":[0]}]},"4":{"name_en":"جمهورية رومانيا - أوروبا","name_ar":"جمهورية رومانيا - أوروبا","polling_stations":[{"kalam":"1","location_id":4,"districts_ids":[0]}]},"5":{"name_en":"المملكة المتحدة لبريطانيا العظمى وآيرلندا الشمالية - أوروبا","name_ar":"المملكة المتحدة لبريطانيا العظمى وآيرلندا الشمالية - أوروبا","polling_stations":[{"kalam":"1","location_id":5,"districts_ids":[12,14,15,18,20,24,25]},{"kalam":"2","location_id":5,"districts_ids":[1,2,16,21,23]},{"kalam":"3","location_id":5,"districts_ids":[19,26,10,17,13,11,9,8,4]},{"kalam":"4","location_id":5,"districts_ids":[6,5,3,7]}]},"6":{"name_en":"المملكة الهيلانية - أوروبا","name_ar":"المملكة الهيلانية - أوروبا","polling_stations":[{"kalam":"1","location_id":6,"districts_ids":[0]}]},"7":{"name_en":"مملكة بلجيكا - أوروبا","name_ar":"مملكة بلجيكا - أوروبا","polling_stations":[{"kalam":"1","location_id":7,"districts_ids":[1,2,25,15,18,20,14,12,24,8,6]},{"kalam":"2","location_id":7,"districts_ids":[16,21,23,10,19,26]},{"kalam":"3","location_id":7,"districts_ids":[17,13,11,9,4,5,3,7]}]},"8":{"name_en":"الجمهورية الإيطالية - أوروبا","name_ar":"الجمهورية الإيطالية - أوروبا","polling_stations":[{"kalam":"1","location_id":8,"districts_ids":[0]},{"kalam":"2","location_id":9,"districts_ids":[0]}]},"9":{"name_en":"مملكة السويد - أوروبا","name_ar":"مملكة السويد - أوروبا","polling_stations":[{"kalam":"1","location_id":10,"districts_ids":[1,2,25,15,18,20,14,12,3,7,24,5]},{"kalam":"2","location_id":10,"districts_ids":[16,21,23,19,26,27,17,6,8,13,11,9,4]},{"kalam":"3","location_id":11,"districts_ids":[1,2,16,23,3,7]},{"kalam":"4","location_id":11,"districts_ids":[15,18,20,14,12,24,19,26,10,11,9,6,8,4,5]},{"kalam":"5","location_id":12,"districts_ids":[1,2,6,8,4,5,3,7,25,15]},{"kalam":"6","location_id":12,"districts_ids":[18,20,14,12,7,24,16,21,23,19,26,17,9]}]},"10":{"name_en":"مملكة الدانمارك - أوروبا","name_ar":"مملكة الدانمارك - أوروبا","polling_stations":[{"kalam":"1","location_id":13,"districts_ids":[0]}]},"11":{"name_en":"جمهورية ألمانيا الاتحادية - أوروبا","name_ar":"جمهورية ألمانيا الاتحادية - أوروبا","polling_stations":[{"kalam":"1","location_id":14,"districts_ids":[2]},{"kalam":"2","location_id":14,"districts_ids":[1,0,2]},{"kalam":"3","location_id":14,"districts_ids":[18]},{"kalam":"4","location_id":14,"districts_ids":[18]},{"kalam":"5","location_id":14,"districts_ids":[20]},{"kalam":"6","location_id":14,"districts_ids":[14,12]},{"kalam":"7","location_id":14,"districts_ids":[21,0]},{"kalam":"8","location_id":14,"districts_ids":[25,0,15,0,16,0,23,0,19,0,26,0,27,0]},{"kalam":"9","location_id":15,"districts_ids":[1,0,2,0,25,0,15,0,20,0,17,0,11,0,9,0,6,0,8,0,4,0,5,0,3,0,7]},{"kalam":"10","location_id":15,"districts_ids":[18,0,21,0,26]},{"kalam":"11","location_id":16,"districts_ids":[1,0,2]},{"kalam":"12","location_id":16,"districts_ids":[25,0]},{"kalam":"13","location_id":16,"districts_ids":[20,0]},{"kalam":"14","location_id":16,"districts_ids":[23,0]},{"kalam":"15","location_id":17,"districts_ids":[1,0,2,0,25,0,15,0,18,0,20]},{"kalam":"16","location_id":17,"districts_ids":[14,0]},{"kalam":"17","location_id":18,"districts_ids":[1,0,2,0,15,0,18,0,4,0,20,0]},{"kalam":"18","location_id":18,"districts_ids":[11,0,27,0,10,0,19,0,26,0,14,0,12,24,23]},{"kalam":"19","location_id":19,"districts_ids":[0]},{"kalam":"20","location_id":20,"districts_ids":[0]},{"kalam":"21","location_id":21,"districts_ids":[0]}]},"12":{"name_en":"الجمهورية الفرنسية - أوروبا","name_ar":"الجمهورية الفرنسية - أوروبا","polling_stations":[{"kalam":"1","location_id":22,"districts_ids":[0]},{"kalam":"2","location_id":23,"districts_ids":[0]},{"kalam":"3","location_id":24,"districts_ids":[0]},{"kalam":"4","location_id":25,"districts_ids":[25,0,15]},{"kalam":"5","location_id":25,"districts_ids":[18,0,6]},{"kalam":"6","location_id":26,"districts_ids":[19,0]},{"kalam":"7","location_id":26,"districts_ids":[11,0]},{"kalam":"8","location_id":27,"districts_ids":[16]},{"kalam":"9","location_id":27,"districts_ids":[21,0]},{"kalam":"10","location_id":28,"districts_ids":[0]},{"kalam":"11","location_id":29,"districts_ids":[16,0,23]},{"kalam":"12","location_id":29,"districts_ids":[15,0]},{"kalam":"13","location_id":30,"districts_ids":[8]},{"kalam":"14","location_id":30,"districts_ids":[6]},{"kalam":"15","location_id":30,"districts_ids":[4]},{"kalam":"16","location_id":31,"districts_ids":[5]},{"kalam":"17","location_id":31,"districts_ids":[7]},{"kalam":"18","location_id":31,"districts_ids":[3]},{"kalam":"19","location_id":32,"districts_ids":[0]},{"kalam":"20","location_id":33,"districts_ids":[0]},{"kalam":"21","location_id":34,"districts_ids":[0]},{"kalam":"22","location_id":35,"districts_ids":[0]},{"kalam":"23","location_id":36,"districts_ids":[1]},{"kalam":"24","location_id":36,"districts_ids":[2]},{"kalam":"25","location_id":37,"districts_ids":[0]},{"kalam":"26","location_id":38,"districts_ids":[0]},{"kalam":"27","location_id":39,"districts_ids":[0]},{"kalam":"28","location_id":40,"districts_ids":[0]}]},"13":{"name_en":"جمهورية الكوت ديفوار - أفريقيا","name_ar":"جمهورية الكوت ديفوار - أفريقيا","polling_stations":[{"kalam":"1","location_id":41,"districts_ids":[18]},{"kalam":"2","location_id":41,"districts_ids":[18]},{"kalam":"3","location_id":41,"districts_ids":[18]},{"kalam":"4","location_id":41,"districts_ids":[1,0,2,0,16,0,21,0,23,19,26,6,8,14,12]},{"kalam":"5","location_id":41,"districts_ids":[20,17,13,11,9,4,5,3,7,25,15,24]},{"kalam":"6","location_id":42,"districts_ids":[0]}]},"14":{"name_en":"جمهورية نيجيريا الاتحادية - أفريقيا","name_ar":"جمهورية نيجيريا الاتحادية - أفريقيا","polling_stations":[{"kalam":"1","location_id":43,"districts_ids":[0]},{"kalam":"2","location_id":44,"districts_ids":[0]},{"kalam":"3","location_id":45,"districts_ids":[0]}]},"15":{"name_en":"جمهورية بنين - أفريقيا","name_ar":"جمهورية بنين - أفريقيا","polling_stations":[{"kalam":"1","location_id":46,"districts_ids":[0]}]},"16":{"name_en":"جمهورية الكونغو الديمقراطية - أفريقيا","name_ar":"جمهورية الكونغو الديمقراطية - أفريقيا","polling_stations":[{"kalam":"1","location_id":47,"districts_ids":[0]}]},"17":{"name_en":"جمهورية غانا - أفريقيا","name_ar":"جمهورية غانا - أفريقيا","polling_stations":[{"kalam":"1","location_id":48,"districts_ids":[0]}]},"18":{"name_en":"جمهورية جنوب أفريقيا - أفريقيا","name_ar":"جمهورية جنوب أفريقيا - أفريقيا","polling_stations":[{"kalam":"1","location_id":49,"districts_ids":[0]}]},"19":{"name_en":"الجمهورية الغابونية - أفريقيا","name_ar":"الجمهورية الغابونية - أفريقيا","polling_stations":[{"kalam":"1","location_id":50,"districts_ids":[0]}]},"20":{"name_en":"جمهورية غينيا - أفريقيا","name_ar":"جمهورية غينيا - أفريقيا","polling_stations":[{"kalam":"1","location_id":51,"districts_ids":[0]}]},"21":{"name_en":"جمهورية ليبيريا - أفريقيا","name_ar":"جمهورية ليبيريا - أفريقيا","polling_stations":[{"kalam":"1","location_id":52,"districts_ids":[0]}]},"22":{"name_en":"جمهورية سيراليون - أفريقيا","name_ar":"جمهورية سيراليون - أفريقيا","polling_stations":[{"kalam":"1","location_id":53,"districts_ids":[0]}]},"23":{"name_en":"جمهورية مصر العربية - أفريقيا","name_ar":"جمهورية مصر العربية - أفريقيا","polling_stations":[{"kalam":"1","location_id":54,"districts_ids":[0]}]},"24":{"name_en":"جمهورية السنغال - أفريقيا","name_ar":"جمهورية السنغال - أفريقيا","polling_stations":[{"kalam":"1","location_id":55,"districts_ids":[0]}]},"25":{"name_en":"الجمهورية الاتحادية البرازيلية - أمريكا اللاتينية","name_ar":"الجمهورية الاتحادية البرازيلية - أمريكا اللاتينية","polling_stations":[{"kalam":"1","location_id":56,"districts_ids":[0]},{"kalam":"2","location_id":57,"districts_ids":[21]},{"kalam":"3","location_id":57,"districts_ids":[21]},{"kalam":"4","location_id":57,"districts_ids":[1,0,2,0,25,0,15,0,18,0,20,14,12,24,16]},{"kalam":"5","location_id":57,"districts_ids":[23,19,26,27,10,17,13,11,9,6,8,4,5,3,7]},{"kalam":"6","location_id":58,"districts_ids":[0]}]},"26":{"name_en":"جمهورية باراغواي - أمريكا اللاتينية","name_ar":"جمهورية باراغواي - أمريكا اللاتينية","polling_stations":[{"kalam":"1","location_id":59,"districts_ids":[0]},{"kalam":"2","location_id":60,"districts_ids":[24]},{"kalam":"3","location_id":60,"districts_ids":[4,12,5,14,2,6,15,16,18,7,19,20,21,23,8,26]}]},"27":{"name_en":"جمهورية كولومبيا - أمريكا اللاتينية","name_ar":"جمهورية كولومبيا - أمريكا اللاتينية","polling_stations":[{"kalam":"1","location_id":61,"districts_ids":[0]}]},"28":{"name_en":"جمهورية الأرجنتين - أمريكا اللاتينية","name_ar":"جمهورية الأرجنتين - أمريكا اللاتينية","polling_stations":[{"kalam":"1","location_id":62,"districts_ids":[0]}]},"29":{"name_en":"الجمهورية البوليفارية الفنزويلية - أمريكا اللاتينية","name_ar":"الجمهورية البوليفارية الفنزويلية - أمريكا اللاتينية","polling_stations":[{"kalam":"1","location_id":63,"districts_ids":[1,0,2,0,15,0,18,0,14,0,24,6,8,4,5,3,7,19,26,10]},{"kalam":"2","location_id":63,"districts_ids":[21]},{"kalam":"3","location_id":63,"districts_ids":[21,23,16,13,11,9]},{"kalam":"4","location_id":63,"districts_ids":[17]}]},"30":{"name_en":"الولايات المتحدة المكسيكية - أمريكا اللاتينية","name_ar":"الولايات المتحدة المكسيكية - أمريكا اللاتينية","polling_stations":[{"kalam":"1","location_id":64,"districts_ids":[0]}]},"31":{"name_en":"جزيرة غوادلوب - أمريكا اللاتينية","name_ar":"جزيرة غوادلوب - أمريكا اللاتينية","polling_stations":[{"kalam":"1","location_id":65,"districts_ids":[0]}]},"32":{"name_en":"المملكة العربية السعودية - آسيا","name_ar":"المملكة العربية السعودية - آسيا","polling_stations":[{"kalam":"1","location_id":66,"districts_ids":[1,0,2,0,5]},{"kalam":"2","location_id":66,"districts_ids":[25,15,18,20,14,12,21,24]},{"kalam":"3","location_id":66,"districts_ids":[16,19,26,27,10]},{"kalam":"4","location_id":66,"districts_ids":[11,17,13,9,6,8,4]},{"kalam":"5","location_id":66,"districts_ids":[3,7,23]},{"kalam":"6","location_id":67,"districts_ids":[1,2,25,20,15,18]},{"kalam":"7","location_id":67,"districts_ids":[14,12,24,16,21,23,6,8,4,5,3,7]},{"kalam":"8","location_id":67,"districts_ids":[19,26,27,10,17,13,11,9]}]},"33":{"name_en":"دولة الإمارات العربية المتحدة - آسيا","name_ar":"دولة الإمارات العربية المتحدة - آسيا","polling_stations":[{"kalam":"1","location_id":68,"districts_ids":[1,2,25,15,18,20,14,12,24,23,21,16]},{"kalam":"2","location_id":68,"districts_ids":[19,26,27,10,17,13,11,9,6,8]},{"kalam":"3","location_id":68,"districts_ids":[5,3,7,4]},{"kalam":"4","location_id":69,"districts_ids":[1,25,15,12]},{"kalam":"5","location_id":69,"districts_ids":[2]},{"kalam":"6","location_id":69,"districts_ids":[16,21,0,0]},{"kalam":"7","location_id":69,"districts_ids":[19,26,27,10]},{"kalam":"8","location_id":69,"districts_ids":[17,0]},{"kalam":"9","location_id":69,"districts_ids":[24,0]},{"kalam":"10","location_id":69,"districts_ids":[4]},{"kalam":"11","location_id":69,"districts_ids":[5]},{"kalam":"12","location_id":69,"districts_ids":[14,0]},{"kalam":"13","location_id":69,"districts_ids":[18,0]}]},"34":{"name_en":"جمهورية أرمينيا - آسيا","name_ar":"جمهورية أرمينيا - آسيا","polling_stations":[{"kalam":"1","location_id":70,"districts_ids":[0]}]},"35":{"name_en":"سلطنة عمان - آسيا","name_ar":"سلطنة عمان - آسيا","polling_stations":[{"kalam":"1","location_id":71,"districts_ids":[0]}]},"36":{"name_en":"دولة الكويت - آسيا","name_ar":"دولة الكويت - آسيا","polling_stations":[{"kalam":"1","location_id":72,"districts_ids":[6,0]},{"kalam":"2","location_id":72,"districts_ids":[3,0]},{"kalam":"3","location_id":72,"districts_ids":[16,0]},{"kalam":"4","location_id":72,"districts_ids":[1,0,2,0,25,0,15,0,27,0,10]}]},"37":{"name_en":"دولة قطر - آسيا","name_ar":"دولة قطر - آسيا","polling_stations":[{"kalam":"1","location_id":73,"districts_ids":[1,0,2,0,15,0,18,0,14,0,12,24,25,20]},{"kalam":"2","location_id":73,"districts_ids":[16,0]},{"kalam":"3","location_id":73,"districts_ids":[17,0,13,0,11,0,9,0,6,0,8,0,26,27,0]},{"kalam":"4","location_id":73,"districts_ids":[5,0]}]},"38":{"name_en":"كومنولث أستراليا - أستراليا","name_ar":"كومنولث أستراليا - أستراليا","polling_stations":[{"kalam":"1","location_id":74,"districts_ids":[0]},{"kalam":"2","location_id":75,"districts_ids":[0]},{"kalam":"3","location_id":76,"districts_ids":[0]},{"kalam":"4","location_id":77,"districts_ids":[1,2,25,20,15,18,14,12,24,16,21,23]},{"kalam":"5","location_id":77,"districts_ids":[19]},{"kalam":"6","location_id":77,"districts_ids":[19]},{"kalam":"7","location_id":77,"districts_ids":[26,27,10,11]},{"kalam":"8","location_id":77,"districts_ids":[17,13]},{"kalam":"9","location_id":77,"districts_ids":[9,6,8,4,5,3,7]},{"kalam":"10","location_id":78,"districts_ids":[9]},{"kalam":"11","location_id":78,"districts_ids":[9]},{"kalam":"12","location_id":78,"districts_ids":[14,6,8]},{"kalam":"13","location_id":78,"districts_ids":[16,4]},{"kalam":"14","location_id":78,"districts_ids":[1,2,5,7]},{"kalam":"15","location_id":79,"districts_ids":[17]},{"kalam":"16","location_id":79,"districts_ids":[17]},{"kalam":"17","location_id":79,"districts_ids":[17]},{"kalam":"18","location_id":79,"districts_ids":[17]},{"kalam":"19","location_id":79,"districts_ids":[17]},{"kalam":"20","location_id":80,"districts_ids":[13]},{"kalam":"21","location_id":80,"districts_ids":[13]},{"kalam":"22","location_id":80,"districts_ids":[13]},{"kalam":"23","location_id":81,"districts_ids":[26]},{"kalam":"24","location_id":81,"districts_ids":[26]},{"kalam":"25","location_id":82,"districts_ids":[21,23]},{"kalam":"26","location_id":83,"districts_ids":[27]},{"kalam":"27","location_id":83,"districts_ids":[27]},{"kalam":"28","location_id":83,"districts_ids":[10]},{"kalam":"29","location_id":84,"districts_ids":[11]},{"kalam":"30","location_id":84,"districts_ids":[19]},{"kalam":"31","location_id":85,"districts_ids":[25,15,18,20,12,24]}]},"39":{"name_en":"كندا - أمريكا الشمالية","name_ar":"كندا - أمريكا الشمالية","polling_stations":[{"kalam":"1","location_id":86,"districts_ids":[1,2,25,15,18,14,12,24]},{"kalam":"2","location_id":86,"districts_ids":[3,21]},{"kalam":"3","location_id":86,"districts_ids":[16,7,23]},{"kalam":"4","location_id":86,"districts_ids":[19,26,27,17,13,11,9,6,8,4]},{"kalam":"5","location_id":87,"districts_ids":[1,2,18]},{"kalam":"6","location_id":87,"districts_ids":[14,24,23,19,12,21,16,27,10]},{"kalam":"7","location_id":87,"districts_ids":[13,11,9,6,8,4,5]},{"kalam":"8","location_id":87,"districts_ids":[3,7,25,15]},{"kalam":"9","location_id":88,"districts_ids":[0]},{"kalam":"10","location_id":88,"districts_ids":[0]},{"kalam":"11","location_id":89,"districts_ids":[0]},{"kalam":"12","location_id":90,"districts_ids":[0]},{"kalam":"13","location_id":91,"districts_ids":[0]},{"kalam":"14","location_id":92,"districts_ids":[0]},{"kalam":"15","location_id":93,"districts_ids":[1]},{"kalam":"16","location_id":93,"districts_ids":[2]},{"kalam":"17","location_id":93,"districts_ids":[4]},{"kalam":"18","location_id":93,"districts_ids":[4]},{"kalam":"19","location_id":93,"districts_ids":[9,0,6,0,8]},{"kalam":"20","location_id":93,"districts_ids":[19]},{"kalam":"21","location_id":93,"districts_ids":[5]},{"kalam":"22","location_id":93,"districts_ids":[25,15,20]},{"kalam":"23","location_id":93,"districts_ids":[12,0]},{"kalam":"24","location_id":93,"districts_ids":[14,0]},{"kalam":"25","location_id":93,"districts_ids":[26,0]},{"kalam":"26","location_id":93,"districts_ids":[21]},{"kalam":"27","location_id":93,"districts_ids":[3]},{"kalam":"28","location_id":93,"districts_ids":[3]},{"kalam":"29","location_id":93,"districts_ids":[16]},{"kalam":"30","location_id":93,"districts_ids":[16]}]},"40":{"name_en":"الولايات المتحدة الأمريكية - أمريكا الشمالية","name_ar":"الولايات المتحدة الأمريكية - أمريكا الشمالية","polling_stations":[{"kalam":"1","location_id":94,"districts_ids":[0]},{"kalam":"2","location_id":94,"districts_ids":[0]},{"kalam":"3","location_id":95,"districts_ids":[0]},{"kalam":"4","location_id":95,"districts_ids":[0]},{"kalam":"5","location_id":96,"districts_ids":[0]},{"kalam":"6","location_id":97,"districts_ids":[0]},{"kalam":"7","location_id":98,"districts_ids":[0]},{"kalam":"8","location_id":99,"districts_ids":[0]},{"kalam":"9","location_id":100,"districts_ids":[0]},{"kalam":"10","location_id":101,"districts_ids":[1,2,25,20,15,18,14,12,24,21,16,23,5,3,7]},{"kalam":"11","location_id":101,"districts_ids":[19,26,17,13,11,9,6,8,4]},{"kalam":"12","location_id":102,"districts_ids":[1,2,25,20,15,18,14,12,24,21,16,23,26,27,10,19]},{"kalam":"13","location_id":102,"districts_ids":[17,13,11,9]},{"kalam":"14","location_id":102,"districts_ids":[6,8,4,5,3,7]},{"kalam":"15","location_id":103,"districts_ids":[0]},{"kalam":"16","location_id":104,"districts_ids":[0]},{"kalam":"17","location_id":105,"districts_ids":[0]},{"kalam":"18","location_id":106,"districts_ids":[1,2,8,25,26]},{"kalam":"19","location_id":106,"districts_ids":[9,3,11,4,13,6,17,24]},{"kalam":"20","location_id":106,"districts_ids":[27,10,5,14,15,16,18,7,19,20]},{"kalam":"21","location_id":107,"districts_ids":[0]},{"kalam":"22","location_id":108,"districts_ids":[0]},{"kalam":"23","location_id":109,"districts_ids":[0]},{"kalam":"24","location_id":110,"districts_ids":[0]},{"kalam":"25","location_id":111,"districts_ids":[0]},{"kalam":"26","location_id":111,"districts_ids":[0]},{"kalam":"27","location_id":112,"districts_ids":[0]},{"kalam":"28","location_id":113,"districts_ids":[0]},{"kalam":"29","location_id":114,"districts_ids":[0]},{"kalam":"30","location_id":115,"districts_ids":[0]},{"kalam":"31","location_id":116,"districts_ids":[0]}]}}
