{
"type": "FeatureCollection",
"crs": { "type": "name", "properties": { "name": "urn:ogc:def:crs:OGC:1.3:CRS84" } },
                                                                                
"features": [
{ "type": "Feature", "properties": { "ID": 1, "District": "بيروت ٢", "Subdistrict": "الباشورة", "Name_AR": "ابتدائية علي بن ابي طالب", "Name_EN": "Ali Ben Abi Taleb Elementary School", "Latitude": "33°53'12.29\"N", "Longitude": "35°30'25.62\"E" }, "geometry": { "type": "Point", "coordinates": [ 35.507116666666668, 33.886747222222219 ] } },
{ "type": "Feature", "properties": { "ID": 2, "District": "بيروت ٣", "Subdistrict": "المزرعة", "Name_AR": "الثانوية العاملية المبنى الجنوبي", "Name_EN": "Al Amiliya Secondary School South Building", "Latitude": "33°52'58.17\"N", "Longitude": "35°30'20.69\"E" }, "geometry": { "type": "Point", "coordinates": [ 35.505747222222219, 33.882825 ] } },
{ "type": "Feature", "properties": { "ID": 3, "District": "بيروت ٣", "Subdistrict": "المزرعة", "Name_AR": "العاملية للبنات", "Name_EN": "Al Amiliya for Girls", "Latitude": "33°53'3.22\"N", "Longitude": "35°30'18.14\"E" }, "geometry": { "type": "Point", "coordinates": [ 35.50503888888889, 33.884227777777781 ] } },
{ "type": "Feature", "properties": { "ID": 4, "District": "بيروت ٣", "Subdistrict": "ميناء الحصن", "Name_AR": "المدرسة الارمنية الانجيلية العالية", "Name_EN": "Armenian Evangelical High School", "Latitude": "33°53'46.93\"N", "Longitude": "35°29'32.66\"E" }, "geometry": { "type": "Point", "coordinates": [ 35.492405555555557, 33.896369444444446 ] } },
{ "type": "Feature", "properties": { "ID": 5, "District": "بيروت ١", "Subdistrict": "الاشرفية", "Name_AR": "المدرسة الثانوية لراهبات المحبة العازارية", "Name_EN": "Sisters of Charity Lazarite High School", "Latitude": "33°53'21.27\"N", "Longitude": "35°31'20.65\"E" }, "geometry": { "type": "Point", "coordinates": [ 35.522402777777778, 33.889241666666663 ] } },
{ "type": "Feature", "properties": { "ID": 6, "District": "بيروت ٢", "Subdistrict": "المدور", "Name_AR": "المدرسة المركزية الارمنية الانجيلية", "Name_EN": "Central Armenian Evangelical School", "Latitude": "33°53'46.67\"N", "Longitude": "35°31'39.56\"E" }, "geometry": { "type": "Point", "coordinates": [ 35.527655555555555, 33.896297222222223 ] } },
{ "type": "Feature", "properties": { "ID": 7, "District": "بيروت ٣", "Subdistrict": "زقاق البلاط", "Name_AR": "المدرسة المعنية", "Name_EN": "Maaniyya School", "Latitude": "33°53'25.09\"N", "Longitude": "35°29'43.05\"E" }, "geometry": { "type": "Point", "coordinates": [ 35.495291666666667, 33.890302777777777 ] } },
{ "type": "Feature", "properties": { "ID": 8, "District": "بيروت ٣", "Subdistrict": "رأس بيروت", "Name_AR": "المدرسة المنارة المتوسطة للبنات", "Name_EN": "Al Manara Middle School for Girls", "Latitude": "33°53'39.82\"N", "Longitude": "35°28'30.82\"E" }, "geometry": { "type": "Point", "coordinates": [ 35.475227777777775, 33.894394444444444 ] } },
{ "type": "Feature", "properties": { "ID": 9, "District": "بيروت ٣", "Subdistrict": "المزرعة", "Name_AR": "المقاصد الإسلامية للبنين", "Name_EN": "Al Makassed Al Islamiya for Boys", "Latitude": "33°53'12.96\"N", "Longitude": "35°30'42.69\"E" }, "geometry": { "type": "Point", "coordinates": [ 35.511858333333336, 33.886933333333332 ] } },
{ "type": "Feature", "properties": { "ID": 11, "District": "بيروت ٣", "Subdistrict": "رأس بيروت", "Name_AR": "تكميلية راس بيروت الاولى المختلطة", "Name_EN": "Ras Beirut (1) Complementary Mixed School", "Latitude": "33° 53' 55.035\"", "Longitude": "35° 28' 42.0348\"" }, "geometry": { "type": "Point", "coordinates": [ 35.478343, 33.898620833333332 ] } },
{ "type": "Feature", "properties": { "ID": 12, "District": "بيروت ١", "Subdistrict": "الاشرفية", "Name_AR": "ثانوية الاشرفية الاولى للبنين", "Name_EN": "Ashrafieh (1) High School for Boys", "Latitude": "33° 53' 1.5894\"", "Longitude": "35° 30' 59.9826\"" }, "geometry": { "type": "Point", "coordinates": [ 35.51666183333333, 33.883774833333334 ] } },
{ "type": "Feature", "properties": { "ID": 13, "District": "بيروت ٣", "Subdistrict": "المصيطبة", "Name_AR": "ثانوية الحرج الرسمية للصبيان", "Name_EN": "Al Horj Public High School for Boys", "Latitude": "33° 53' 2.2956\"", "Longitude": "35° 30' 15.4692\"" }, "geometry": { "type": "Point", "coordinates": [ 35.504297, 33.883971 ] } },
{ "type": "Feature", "properties": { "ID": 14, "District": "بيروت ٣", "Subdistrict": "زقاق البلاط", "Name_AR": "ثانوية الحريري الثانية البطريركية", "Name_EN": "Al Hariri High School (2) Batrakiyyeh", "Latitude": "33°53'29.79\"N", "Longitude": "35°29'47.39\"E" }, "geometry": { "type": "Point", "coordinates": [ 35.496497222222224, 33.89160833333333 ] } },
{ "type": "Feature", "properties": { "ID": 15, "District": "بيروت ٢", "Subdistrict": "الباشورة", "Name_AR": "ثانوية الشهيد المفتي حسن خالد ) حوض الولاية – برج ابي حيدر(", "Name_EN": "Al Shahid Al Mufti Hassan Khaled High School", "Latitude": "33°53'18.70\"N", "Longitude": "35°30'0.37\"E" }, "geometry": { "type": "Point", "coordinates": [ 35.500102777777776, 33.888527777777774 ] } },
{ "type": "Feature", "properties": { "ID": 16, "District": "بيروت ٢", "Subdistrict": "الباشورة", "Name_AR": "ثانوية المقاصد الاسلامية للبنات", "Name_EN": "Al Makassed Al Islamiyya High School for Girls", "Latitude": "33°53'27.45\"N", "Longitude": "35°30'5.74\"E" }, "geometry": { "type": "Point", "coordinates": [ 35.501594444444443, 33.89095833333333 ] } },
{ "type": "Feature", "properties": { "ID": 17, "District": "بيروت ٣", "Subdistrict": "المزرعة", "Name_AR": "ثانوية خالد بن الوليد المقاصد", "Name_EN": "Khaled Ben El Walid Al Makassed High School", "Latitude": "33°52'35.73\"N", "Longitude": "35°30'23.56\"E" }, "geometry": { "type": "Point", "coordinates": [ 35.506544444444444, 33.87659166666667 ] } },
{ "type": "Feature", "properties": { "ID": 18, "District": "بيروت ٣", "Subdistrict": "المصيطبة", "Name_AR": "ثانوية خديجة الكبرى", "Name_EN": "Khadija High School", "Latitude": "33°53'22.54\"N", "Longitude": "35°29'9.18\"E" }, "geometry": { "type": "Point", "coordinates": [ 35.485883333333334, 33.889594444444441 ] } },
{ "type": "Feature", "properties": { "ID": 19, "District": "بيروت ٣", "Subdistrict": "المزرعة", "Name_AR": "ثانوية راس النبع للبنين", "Name_EN": "Ras El Nabeh High School for Boys", "Latitude": "33°53'2.12\"N", "Longitude": "35°30'17.91\"E" }, "geometry": { "type": "Point", "coordinates": [ 35.504975, 33.883922222222225 ] } },
{ "type": "Feature", "properties": { "ID": 20, "District": "بيروت ٣", "Subdistrict": "المصيطبة", "Name_AR": "ثانوية رينيه معوض للبنين", "Name_EN": "René Mouawad High School for Boys", "Latitude": "33°53'29.33\"N", "Longitude": "35°29'13.07\"E" }, "geometry": { "type": "Point", "coordinates": [ 35.486963888888887, 33.891480555555553 ] } },
{ "type": "Feature", "properties": { "ID": 22, "District": "بيروت ٣", "Subdistrict": "المزرعة", "Name_AR": "ثانوية عمر فروخ الرسمية للبنات", "Name_EN": "Omar Farroukh Public High School for Girls", "Latitude": "33°52'22.13\"N", "Longitude": "35°29'43.54\"E" }, "geometry": { "type": "Point", "coordinates": [ 35.495427777777778, 33.872813888888892 ] } },
{ "type": "Feature", "properties": { "ID": 23, "District": "بيروت ٣", "Subdistrict": "المزرعة", "Name_AR": "ثانوية فخر الدين المعني للبنات", "Name_EN": "Fakhr El Dine Al Maani High School for Girls", "Latitude": "33°52'57\"N", "Longitude": "35°30'3\"E" }, "geometry": { "type": "Point", "coordinates": [ 35.500833333333333, 33.8825 ] } },
{ "type": "Feature", "properties": { "ID": 24, "District": "بيروت ٣", "Subdistrict": "رأس بيروت", "Name_AR": "ثانوية فردان مقابل سيار الدرك", "Name_EN": "Verdun High School", "Latitude": "33°53'4.93\"N", "Longitude": "35°28'57.92\"E" }, "geometry": { "type": "Point", "coordinates": [ 35.482755555555556, 33.884702777777775 ] } },
{ "type": "Feature", "properties": { "ID": 25, "District": "بيروت ١", "Subdistrict": "الاشرفية", "Name_AR": "ثانوية لور مغيزل للبنات الشحروري", "Name_EN": "Laure Moukhayzel High School for Girls Shahrouri", "Latitude": "33°53'24.39\"N", "Longitude": "35°31'41.76\"E" }, "geometry": { "type": "Point", "coordinates": [ 35.528266666666667, 33.89010833333333 ] } },
{ "type": "Feature", "properties": { "ID": 26, "District": "بيروت ١", "Subdistrict": "الرميل", "Name_AR": "دار المعلمين و المعلمات", "Name_EN": "Dar Al Mouaallimin Wal Mouaallimat", "Latitude": "33°52'8.81\"N", "Longitude": "35°29'37.93\"E" }, "geometry": { "type": "Point", "coordinates": [ 35.493869444444442, 33.86911388888889 ] } },
{ "type": "Feature", "properties": { "ID": 27, "District": "بيروت ٣", "Subdistrict": "زقاق البلاط", "Name_AR": "سيتي انترناسيونال سكول", "Name_EN": "City International School", "Latitude": "33°53'39.21\"N", "Longitude": "35°29'50.53\"E" }, "geometry": { "type": "Point", "coordinates": [ 35.497369444444445, 33.894225 ] } },
{ "type": "Feature", "properties": { "ID": 28, "District": "بيروت ٢", "Subdistrict": "المدور", "Name_AR": "شركة كهرباء لبنان", "Name_EN": "Electricité du Liban Company", "Latitude": "33°53'46.46\"N", "Longitude": "35°31'17.97\"E" }, "geometry": { "type": "Point", "coordinates": [ 35.521658333333335, 33.896238888888888 ] } },
{ "type": "Feature", "properties": { "ID": 29, "District": "بيروت ٢", "Subdistrict": "المرفأ", "Name_AR": "مبنى البلدية - جنب فوج الاطفاء -جادة شارل حلو - ( البيت البتروني ) بلو ك B", "Name_EN": "Beirut Municipality Building Block B", "Latitude": "33°53'57.41\"N", "Longitude": "35°32'2.99\"E" }, "geometry": { "type": "Point", "coordinates": [ 35.534163888888891, 33.899280555555556 ] } },
{ "type": "Feature", "properties": { "ID": 30, "District": "بيروت ٢", "Subdistrict": "المدور", "Name_AR": "مبنى البلدية -- حديقة الكرنتينا", "Name_EN": "Beirut Municipality Building Karantina Garden", "Latitude": "33°54'5.44\"N", "Longitude": "35°31'48.60\"E" }, "geometry": { "type": "Point", "coordinates": [ 35.530166666666666, 33.901511111111112 ] } },
{ "type": "Feature", "properties": { "ID": 31, "District": "بيروت ٢", "Subdistrict": "المدور", "Name_AR": "مبنى البلدية -جانب فوج الاطفاء -جادة شارل الحلو ( البيت البتروني ) بلو ك A", "Name_EN": "Beirut Municipality Building Block A", "Latitude": "33°53'57.41\"N", "Longitude": "35°32'2.99\"E" }, "geometry": { "type": "Point", "coordinates": [ 35.534163888888891, 33.899280555555556 ] } },
{ "type": "Feature", "properties": { "ID": 32, "District": "بيروت ٣", "Subdistrict": "المصيطبة", "Name_AR": "متوسط الابتهاج قدوره", "Name_EN": "Al Ibtihaj Middle School", "Latitude": "33° 52' 10.5456\"", "Longitude": "35° 29' 29.6844\"" }, "geometry": { "type": "Point", "coordinates": [ 35.491579, 33.869596 ] } },
{ "type": "Feature", "properties": { "ID": 34, "District": "بيروت ٢", "Subdistrict": "الباشورة", "Name_AR": "متوسطة المستقبل المختلطة", "Name_EN": "Al Moustaqbal Mixed Middle School", "Latitude": "33° 53' 21.8004\"", "Longitude": "35° 29' 59.208\"" }, "geometry": { "type": "Point", "coordinates": [ 35.49978, 33.889389 ] } },
{ "type": "Feature", "properties": { "ID": 35, "District": "بيروت ٢", "Subdistrict": "الباشورة", "Name_AR": "متوسطة بيروت العالية للبنات", "Name_EN": "Beirut High Middle School for Girls", "Latitude": "33°53'5.32\"N", "Longitude": "35°30'20.69\"E" }, "geometry": { "type": "Point", "coordinates": [ 35.505747222222219, 33.884811111111112 ] } },
{ "type": "Feature", "properties": { "ID": 36, "District": "بيروت ٢", "Subdistrict": "المدور", "Name_AR": "محطة شارل حلو بلوك A", "Name_EN": "Charles Helou Station Block A", "Latitude": "33°53'49.27\"N", "Longitude": "35°30'48.90\"E" }, "geometry": { "type": "Point", "coordinates": [ 35.513583333333337, 33.897019444444446 ] } },
{ "type": "Feature", "properties": { "ID": 37, "District": "بيروت ٢", "Subdistrict": "المدور", "Name_AR": "محطة شارل حلو بلوك B", "Name_EN": "Charles Helou Station Block B", "Latitude": "33°53'49.27\"N", "Longitude": "35°30'48.90\"E" }, "geometry": { "type": "Point", "coordinates": [ 35.513583333333337, 33.897019444444446 ] } },
{ "type": "Feature", "properties": { "ID": 38, "District": "بيروت ٣", "Subdistrict": "ميناء الحصن", "Name_AR": "مدرسة ابي بكر الصديق القنطاري", "Name_EN": "Abi Baqr Al Siddiq School Kantari", "Latitude": "33°53'44.16\"N", "Longitude": "35°29'35.07\"E" }, "geometry": { "type": "Point", "coordinates": [ 35.493075, 33.8956 ] } },
{ "type": "Feature", "properties": { "ID": 39, "District": "بيروت ٣", "Subdistrict": "المصيطبة", "Name_AR": "مدرسة الارشاد للبنات", "Name_EN": "Al Irshad School for Girls", "Latitude": "33° 52' 55.9698\"", "Longitude": "35° 29' 53.1234\"" }, "geometry": { "type": "Point", "coordinates": [ 35.498089833333331, 33.882213833333331 ] } },
{ "type": "Feature", "properties": { "ID": 40, "District": "بيروت ١", "Subdistrict": "الرميل", "Name_AR": "مدرسة الاشرفية الثالثة الرسمية المختلطة", "Name_EN": "Ashrafieh Mixed Public High School (3)", "Latitude": "33°53'45.42\"N", "Longitude": "35°31'34.84\"E" }, "geometry": { "type": "Point", "coordinates": [ 35.526344444444447, 33.89595 ] } },
{ "type": "Feature", "properties": { "ID": 41, "District": "بيروت ٣", "Subdistrict": "زقاق البلاط", "Name_AR": "مدرسة الامداد", "Name_EN": "Al Imdad School", "Latitude": "33°53'27.20\"N", "Longitude": "35°29'56.43\"E" }, "geometry": { "type": "Point", "coordinates": [ 35.499008333333336, 33.890888888888888 ] } },
{ "type": "Feature", "properties": { "ID": 42, "District": "بيروت ٣", "Subdistrict": "رأس بيروت", "Name_AR": "مدرسة الامير شكيب ارسلان المتوسطة المختلطة", "Name_EN": "Mir Shakib Arslan Mixed Middle School", "Latitude": "33° 53' 15.5106\"", "Longitude": "35° 28' 42.888\"" }, "geometry": { "type": "Point", "coordinates": [ 35.47858, 33.887641833333333 ] } },
{ "type": "Feature", "properties": { "ID": 43, "District": "بيروت ٣", "Subdistrict": "المصيطبة", "Name_AR": "مدرسة البسطة الثانية المختلطة", "Name_EN": "Al Basta Mixed School (2)", "Latitude": "33° 53' 7.2666\"", "Longitude": "35° 29' 58.3764\"" }, "geometry": { "type": "Point", "coordinates": [ 35.499549, 33.885351833333331 ] } },
{ "type": "Feature", "properties": { "ID": 44, "District": "بيروت ٣", "Subdistrict": "زقاق البلاط", "Name_AR": "مدرسة البطريركية", "Name_EN": "Patriarchate School", "Latitude": "33°53'25.37\"N", "Longitude": "35°29'47.31\"E" }, "geometry": { "type": "Point", "coordinates": [ 35.496475, 33.890380555555552 ] } },
{ "type": "Feature", "properties": { "ID": 45, "District": "بيروت ٢", "Subdistrict": "الباشورة", "Name_AR": "مدرسة البنات الاولى الرسمية", "Name_EN": "Girls Public School (1)", "Latitude": "33°53'21.65\"N", "Longitude": "35°30'3.77\"E" }, "geometry": { "type": "Point", "coordinates": [ 35.501047222222219, 33.88934722222222 ] } },
{ "type": "Feature", "properties": { "ID": 46, "District": "بيروت ١", "Subdistrict": "الاشرفية", "Name_AR": "مدرسة التباريس الرسمية", "Name_EN": "Al Tabaris Public School", "Latitude": "33°53'37.41\"N", "Longitude": "35°30'43.80\"E" }, "geometry": { "type": "Point", "coordinates": [ 35.512166666666666, 33.893725 ] } },
{ "type": "Feature", "properties": { "ID": 48, "District": "بيروت ٣", "Subdistrict": "دار المريسة", "Name_AR": "مدرسة الحكمة", "Name_EN": "Sagesse School", "Latitude": "33°53'53.03\"N", "Longitude": "35°29'41.61\"E" }, "geometry": { "type": "Point", "coordinates": [ 35.494891666666668, 33.898063888888892 ] } },
{ "type": "Feature", "properties": { "ID": 51, "District": "بيروت ٣", "Subdistrict": "المزرعة", "Name_AR": "مدرسة الطريق الجديدة المتوسطة الرسمية الثانية للبنات", "Name_EN": "Tariq Al Jdideh Public Middle School for Girls", "Latitude": "33°52'30.13\"N", "Longitude": "35°30'24.43\"E" }, "geometry": { "type": "Point", "coordinates": [ 35.506786111111111, 33.875036111111115 ] } },
{ "type": "Feature", "properties": { "ID": 52, "District": "بيروت ١", "Subdistrict": "الصيفي", "Name_AR": "مدرسة الفرير – القلب الاقدس", "Name_EN": "Frères Sacré Cœur School", "Latitude": "33°53'10.85\"N", "Longitude": "35°31'33.29\"E" }, "geometry": { "type": "Point", "coordinates": [ 35.525913888888887, 33.88634722222222 ] } },
{ "type": "Feature", "properties": { "ID": 54, "District": "بيروت ٣", "Subdistrict": "رأس بيروت", "Name_AR": "مدرسة الكبوشية", "Name_EN": "Cappucine School", "Latitude": "33°53'41.42\"N", "Longitude": "35°29'6.28\"E" }, "geometry": { "type": "Point", "coordinates": [ 35.485077777777775, 33.894838888888891 ] } },
{ "type": "Feature", "properties": { "ID": 56, "District": "بيروت ١", "Subdistrict": "الاشرفية", "Name_AR": "مدرسة اورغواي الرسمية المختلطة", "Name_EN": "Uruguay Public Mixed School", "Latitude": "33°53'23.07\"N", "Longitude": "35°31'34.97\"E" }, "geometry": { "type": "Point", "coordinates": [ 35.526380555555555, 33.889741666666666 ] } },
{ "type": "Feature", "properties": { "ID": 57, "District": "بيروت ٣", "Subdistrict": "المزرعة", "Name_AR": "مدرسة رأس النبع الاولى للبنات", "Name_EN": "Ras Al Nabeh School for Girls (1)", "Latitude": "33°52'56.16\"N", "Longitude": "35°30'31.35\"E" }, "geometry": { "type": "Point", "coordinates": [ 35.508708333333331, 33.882266666666666 ] } },
{ "type": "Feature", "properties": { "ID": 58, "District": "بيروت ٣", "Subdistrict": "المزرعة", "Name_AR": "مدرسة راس النبع الرسمية الثانية للبنات", "Name_EN": "Ras Al Nabeh Public School for Girls (2)", "Latitude": "33° 52' 59.2926\"", "Longitude": "35° 30' 24.6168\"" }, "geometry": { "type": "Point", "coordinates": [ 35.506838, 33.883136833333332 ] } },
{ "type": "Feature", "properties": { "ID": 59, "District": "بيروت ٢", "Subdistrict": "الباشورة", "Name_AR": "مدرسة راس النبع الرسميةالثانية المختلطة", "Name_EN": "Ras Al Nabeh Mixed Public School (2)", "Latitude": "33° 53' 2.871\"", "Longitude": "35° 30' 17.73\"" }, "geometry": { "type": "Point", "coordinates": [ 35.504925, 33.88413083333333 ] } },
{ "type": "Feature", "properties": { "ID": 60, "District": "بيروت ١", "Subdistrict": "الاشرفية", "Name_AR": "مدرسة روبنيان الارمنية", "Name_EN": "Roupinian Armenian School", "Latitude": "33°53'29.11\"N", "Longitude": "35°31'57.98\"E" }, "geometry": { "type": "Point", "coordinates": [ 35.532772222222221, 33.891419444444445 ] } },
{ "type": "Feature", "properties": { "ID": 61, "District": "بيروت ٣", "Subdistrict": "زقاق البلاط", "Name_AR": "مدرسة زقاق البلاط الرسمية المختلطة", "Name_EN": "Zokak El Blat Mixed Public School", "Latitude": "33°53'34.10\"N", "Longitude": "35°29'53.09\"E" }, "geometry": { "type": "Point", "coordinates": [ 35.498080555555553, 33.892805555555555 ] } },
{ "type": "Feature", "properties": { "ID": 62, "District": "بيروت ١", "Subdistrict": "الاشرفية", "Name_AR": "مدرسة زهرة الاحسان", "Name_EN": "Zahrat Al Ihsan School", "Latitude": "33°53'21.20\"N", "Longitude": "35°31'7.42\"E" }, "geometry": { "type": "Point", "coordinates": [ 35.518727777777777, 33.889222222222223 ] } },
{ "type": "Feature", "properties": { "ID": 63, "District": "بيروت ٣", "Subdistrict": "المزرعة", "Name_AR": "مدرسة عمر الزعني المتوسط الرسمية المختلطة", "Name_EN": "Omar Al Zeanny Mixed Public Middle School", "Latitude": "33°52'29.88\"N", "Longitude": "35°30'2.37\"E" }, "geometry": { "type": "Point", "coordinates": [ 35.500658333333334, 33.874966666666666 ] } },
{ "type": "Feature", "properties": { "ID": 64, "District": "بيروت ٣", "Subdistrict": "المصيطبة", "Name_AR": "مدرسة عمر فاخوري الابتدائية المختلطة", "Name_EN": "Omar Fakhoury Mixed Elementary School", "Latitude": "33°52'7.57\"N", "Longitude": "35°29'30.55\"E" }, "geometry": { "type": "Point", "coordinates": [ 35.491819444444445, 33.868769444444446 ] } },
{ "type": "Feature", "properties": { "ID": 65, "District": "بيروت ١", "Subdistrict": "الاشرفية", "Name_AR": "مدرسة كرم الزيتون للبنات", "Name_EN": "Karm El Zaytoun School for Girls", "Latitude": "33°53'20.74\"N", "Longitude": "35°31'34.69\"E" }, "geometry": { "type": "Point", "coordinates": [ 35.526302777777779, 33.889094444444446 ] } },
{ "type": "Feature", "properties": { "ID": 67, "District": "بيروت ٣", "Subdistrict": "المصيطبة", "Name_AR": "مدرسة مار الياس بطينا", "Name_EN": "Mar Elias School", "Latitude": "33°52'59.27\"N", "Longitude": "35°29'52.54\"E" }, "geometry": { "type": "Point", "coordinates": [ 35.497927777777775, 33.883130555555553 ] } },
{ "type": "Feature", "properties": { "ID": 68, "District": "بيروت ٣", "Subdistrict": "زقاق البلاط", "Name_AR": "مدرسة مار يوسف الضهور الابتدائية", "Name_EN": "Saint Joseph Elementary School Dhour", "Latitude": "33°53'32.80\"N", "Longitude": "35°29'47.99\"E" }, "geometry": { "type": "Point", "coordinates": [ 35.496663888888889, 33.892444444444443 ] } },
{ "type": "Feature", "properties": { "ID": 69, "District": "بيروت ١", "Subdistrict": "الرميل", "Name_AR": "مدرسة متوسطة الاشرفية الرسمية المختلطة", "Name_EN": "Ashrafieh Mixed Public Middle School", "Latitude": "33°53'28.87\"N", "Longitude": "35°31'43.51\"E" }, "geometry": { "type": "Point", "coordinates": [ 35.528752777777775, 33.891352777777776 ] } },
{ "type": "Feature", "properties": { "ID": 70, "District": "بيروت ٣", "Subdistrict": "المصيطبة", "Name_AR": "مدرسة وطى المصيطبة الرسمية المختلطة", "Name_EN": "Wata Al Msaytbeh Mixed Public School", "Latitude": "33°52'55.31\"N", "Longitude": "35°29'55.83\"E" }, "geometry": { "type": "Point", "coordinates": [ 35.498841666666664, 33.882030555555552 ] } },
{ "type": "Feature", "properties": { "ID": 71, "District": "بيروت ٢", "Subdistrict": "المدور", "Name_AR": "مراب البلدية تجاه سليب كونفورت", "Name_EN": "Municipality Parking facing Sleep Comfort", "Latitude": "33°53'57.52\"N", "Longitude": "35°32'1.92\"E" }, "geometry": { "type": "Point", "coordinates": [ 35.533866666666668, 33.899311111111111 ] } },
{ "type": "Feature", "properties": { "ID": 72, "District": "بيروت ٢", "Subdistrict": "المدور", "Name_AR": "مركز أطفائية", "Name_EN": "Fire Brigade Center", "Latitude": "33°53'56.36\"N", "Longitude": "35°31'51.20\"E" }, "geometry": { "type": "Point", "coordinates": [ 35.530888888888889, 33.898988888888887 ] } }
]
}
